SITRO-AIS-48
1 61771U 24199AN  25152.18828032  .00017491  00000-0  54434-3 0  9999
2 61771  97.3522  20.7382 0011392 224.6890 135.3435 15.33298179 75656
HYPERVIEW-1G (RS66S)
1 61772U 24199AP  25152.20333584  .00020404  00000-0  59833-3 0  9992
2 61772  97.3543  21.0800 0012658 215.7071 144.3327 15.35134634 75676
SITRO-AIS-47
1 61773U 24199AQ  25152.18145574  .00017809  00000-0  55151-3 0  9994
2 61773  97.3523  20.7514 0011341 224.7956 135.2372 15.33451330 75653
SITRO-AIS-46
1 61774U 24199AR  25152.16130525  .00017827  00000-0  54628-3 0  9991
2 61774  97.3519  20.7696 0011435 224.6526 135.3797 15.33785926 75659
CSTP-2.2
1 61775U 24199AS  25152.20659619  .00010382  00000-0  35050-3 0  9994
2 61775  97.3560  20.3526 0015819 218.1912 141.8210 15.30748741 75621
SITRO-AIS-40
1 61776U 24199AT  25152.16379330  .00018257  00000-0  55932-3 0  9999
2 61776  97.3520  20.7699 0011567 225.0980 134.9325 15.33787926 78805
CSTP-2.1
1 61777U 24199AU  25152.20609358  .00010580  00000-0  35463-3 0  9999
2 61777  97.3558  20.3477 0015630 216.5821 143.4354 15.30979244 75628
SITRO-AIS-39
1 61778U 24199AV  25152.20787111  .00017400  00000-0  54335-3 0  9991
2 61778  97.3523  20.7136 0011681 225.9891 134.0390 15.33186810 75651
ALTAIR (RS65S)
1 61779U 24199AW  25152.16192650  .00008315  00000-0  29879-3 0  9995
2 61779  97.3567  20.1153 0014319 222.2482 137.7655 15.28802797 78751
SITRO-AIS-37
1 61780U 24199AX  25152.20150240  .00017784  00000-0  55225-3 0  9995
2 61780  97.3530  20.7449 0011893 225.6840 134.3428 15.33358110 75654
ASRTU-1 (RS64S/BJ2CR)
1 61781U 24199AY  25152.19933458  .00006961  00000-0  25485-3 0  9994
2 61781  97.3556  20.0510 0014577 222.7255 137.2852 15.28246912 75603
TUSUR GO (RS78S)
1 61782U 24199AZ  25152.18720557  .00026601  00000-0  75200-3 0  9991
2 61782  97.3537  21.0991 0013000 214.5761 145.4639 15.36225798 75677
ZIMSAT-2 (Z2AS)
1 61783U 24199BA  25152.15310812  .00035716  00000-0  89076-3 0  9991
2 61783  97.3522  21.5806 0012712 211.5446 148.5039 15.40037429 78856
SAMSAT-IONOSPHERE (RS75S)
1 61784U 24199BB  25152.21918372  .00017041  00000-0  53232-3 0  9990
2 61784  97.3549  20.7702 0013696 217.9683 142.0595 15.33155892 78805
RTU MIREA-1 (RS51S)
1 61785U 24199BC  25152.19357837  .00018536  00000-0  57098-3 0  9995
2 61785  97.3547  20.8020 0013519 216.9689 143.0623 15.33585374 75652
SITRO-AIS-38
1 61786U 24199BD  25152.21395626  .00016686  00000-0  52145-3 0  9999
2 61786  97.3527  20.7148 0011866 226.9536 133.0714 15.33170226 75652
2024-199BE (? SWSU-60)
1 61787U 24199BE  25152.20190192  .00007999  00000-0  29125-3 0  9999
2 61787  97.3563  20.0574 0014710 222.2487 137.7620 15.28379775 78759
SITRO-AIS-45
1 61788U 24199BF  25152.19948237  .00017445  00000-0  54348-3 0  9991
2 61788  97.3518  20.7118 0011571 225.3055 134.7246 15.33262202 75635
SITRO-AIS-17
1 61789U 24199BG  25152.18732693  .00002713  00000-0  25159-3 0  9998
2 61789  97.3596  10.3087 0004993 286.0024  74.0647 14.95205804 75051
SITRO-AIS-18
1 61790U 24199BH  25152.19052799  .00002910  00000-0  26972-3 0  9996
2 61790  97.3591  10.2954 0004867 282.9374  77.1304 14.95171240 75053
